NORAD_CAT_ID,OBJECT_NAME,OBJECT_TYPE,EPOCH,MEAN_MOTION,ECCENTRICITY,INCLINATION,RA_OF_ASC_NODE,ARG_OF_PERICENTER,MEAN_ANOMALY,BSTAR,MEAN_MOTION_DOT,MEAN_MOTION_DDOT,TLE_LINE0,TLE_LINE1,TLE_LINE2,SEMIMAJOR_AXIS,PERIOD,APOGEE,PERIGEE,DECAYED
52866.0,STARLINK-4272,PAYLOAD,2022-11-16 13:59:02,15.08839553,0.0002246,53.2184,52.0056,33.4317,326.6817,0.00014676,2.048e-05,0.0,0 STARLINK-4272,1 52866U 22062AN  22320.58267346  .00002048  00000-0  14676-3 0  9990,2 52866  53.2184  52.0056 0002246  33.4317 326.6817 15.08839553 23392,6917.882,95.438,541.3009999999998,538.193,0.0
52866.0,STARLINK-4272,PAYLOAD,2022-11-16 23:31:22,15.08835085,0.0001987,53.219,50.2199,38.4491,321.6643,5.4749e-05,5.83e-06,0.0,0 STARLINK-4272,1 52866U 22062AN  22320.98011589  .00000583  00000-0  54749-4 0  9998,2 52866  53.2190  50.2199 0001987  38.4491 321.6643 15.08835085 23945,6917.895,95.438,541.135,538.386,0.0
52866.0,STARLINK-4272,PAYLOAD,2022-11-17 09:03:40,15.08846788,0.0002163,53.2189,48.4364,33.4975,326.6153,0.00032243,4.848e-05,0.0,0 STARLINK-4272,1 52866U 22062AN  22321.37755301  .00004848  00000-0  32243-3 0  9991,2 52866  53.2189  48.4364 0002163  33.4975 326.6153 15.08846788 24006,6917.86,95.437,541.221,538.2280000000002,0.0
52866.0,STARLINK-4272,PAYLOAD,2022-11-17 12:14:26,15.08848857,0.0002208,53.2185,47.8421,32.9089,327.204,0.00034961,5.282e-05,0.0,0 STARLINK-4272,1 52866U 22062AN  22321.51003240  .00005282  00000-0  34961-3 0  9997,2 52866  53.2185  47.8421 0002208  32.9089 327.2040 15.08848857 23537,6917.853,95.437,541.246,538.191,0.0
52866.0,STARLINK-4272,PAYLOAD,2022-11-18 12:05:13,15.08841926,0.0002158,53.219,43.3808,35.8434,324.2703,0.00010115,1.322e-05,0.0,0 STARLINK-4272,1 52866U 22062AN  22322.50363331  .00001322  00000-0  10115-3 0  9993,2 52866  53.2190  43.3808 0002158  35.8434 324.2703 15.08841926 24177,6917.875,95.437,541.232,538.247,0.0
52866.0,STARLINK-4272,PAYLOAD,2022-11-19 08:45:14,15.08843406,0.0002427,53.2193,39.5164,29.9462,330.1669,5.9042e-05,6.51e-06,0.0,0 STARLINK-4272,1 52866U 22062AN  22323.36475080  .00000651  00000-0  59042-4 0  9990,2 52866  53.2193  39.5164 0002427  29.9462 330.1669 15.08843406 23818,6917.87,95.437,541.414,538.056,0.0
52866.0,STARLINK-4272,PAYLOAD,2022-11-19 15:06:46,15.08847791,0.0002603,53.2194,38.3274,29.533,330.5808,6.6477e-05,7.699999999999999e-06,0.0,0 STARLINK-4272,1 52866U 22062AN  22323.62970913  .00000770  00000-0  66477-4 0  9996,2 52866  53.2194  38.3274 0002603  29.5330 330.5808 15.08847791 24343,6917.857,95.437,541.5219999999998,537.9209999999998,0.0
52866.0,STARLINK-4272,PAYLOAD,2022-11-20 11:46:47,15.08844523,0.0002159,53.2191,34.4614,35.5375,324.5761,8.859e-05,1.122e-05,0.0,0 STARLINK-4272,1 52866U 22062AN  22324.49082907  .00001122  00000-0  88590-4 0  9991,2 52866  53.2191  34.4614 0002159  35.5375 324.5761 15.08844523 23987,6917.8669999999975,95.437,541.225,538.238,0.0
52866.0,STARLINK-4272,PAYLOAD,2022-11-20 21:19:06,15.08844336,0.0002196,53.2192,32.6772,34.243,325.8703,9.4234e-05,1.212e-05,0.0,0 STARLINK-4272,1 52866U 22062AN  22324.88826795  .00001212  00000-0  94234-4 0  9997,2 52866  53.2192  32.6772 0002196  34.2430 325.8703 15.08844336 24042,6917.8669999999975,95.437,541.251,538.2130000000002,0.0
52866.0,STARLINK-4272,PAYLOAD,2022-11-21 05:16:02,15.08840363,0.0002133,53.2191,31.1903,34.6807,325.4324,-1.9659e-05,-6.01e-06,0.0,0 STARLINK-4272,1 52866U 22062AN  22325.21947028 -.00000601  00000-0 -19659-4 0  9999,2 52866  53.2191  31.1903 0002133  34.6807 325.4324 15.08840363 24584,6917.879,95.438,541.22,538.269,0.0
52866.0,STARLINK-4272,PAYLOAD,2022-11-21 10:02:11,15.08843961,0.0002269,53.2196,30.2984,31.0578,329.0548,1.4418e-05,-5.9e-07,0.0,0 STARLINK-4272,1 52866U 22062AN  22325.41819043 -.00000059  00000-0  14418-4 0  9990,2 52866  53.2196  30.2984 0002269  31.0578 329.0548 15.08843961 24129,6917.868,95.437,541.303,538.164,0.0
52866.0,STARLINK-4272,PAYLOAD,2022-11-21 21:09:54,15.08834879,0.0002184,53.2195,28.2172,32.6973,327.4154,1.5007e-05,-4.9e-07,0.0,0 STARLINK-4272,1 52866U 22062AN  22325.88187741 -.00000049  00000-0  15007-4 0  9998,2 52866  53.2195  28.2172 0002184  32.6973 327.4154 15.08834879 24196,6917.896,95.438,541.2719999999998,538.25,0.0
52866.0,STARLINK-4272,PAYLOAD,2022-11-22 00:20:40,15.08833634,0.0002143,53.2195,27.6221,33.4337,326.6790000000001,9.4697e-06,-1.38e-06,0.0,0 STARLINK-4272,1 52866U 22062AN  22326.01435858 -.00000138  00000-0  94697-5 0  9991,2 52866  53.2195  27.6221 0002143  33.4337 326.6790 15.08833634 24704,6917.9,95.438,541.247,538.2819999999998,0.0
52866.0,STARLINK-4272,PAYLOAD,2022-11-22 11:28:22,15.08839608,0.0002127,53.2196,25.541,38.1155,321.9988,9.479e-05,1.221e-05,0.0,0 STARLINK-4272,1 52866U 22062AN  22326.47803402  .00001221  00000-0  94790-4 0  9991,2 52866  53.2196  25.5410 0002127  38.1155 321.9988 15.08839608 24775,6917.882,95.438,541.2180000000002,538.275,0.0
52866.0,STARLINK-4272,PAYLOAD,2022-11-23 09:43:46,15.08838371,0.0002325,53.2199,21.3787,32.5287,327.5848,8.4707e-05,1.06e-05,0.0,0 STARLINK-4272,1 52866U 22062AN  22327.40539687  .00001060  00000-0  84707-4 0  9994,2 52866  53.2199  21.3787 0002325  32.5287 327.5848 15.08838371 24428,6917.885,95.438,541.359,538.1419999999998,0.0
52866.0,STARLINK-4272,PAYLOAD,2022-11-23 12:54:32,15.08839938,0.0002422,53.2199,20.784,31.3126,328.801,8.2896e-05,1.031e-05,0.0,0 STARLINK-4272,1 52866U 22062AN  22327.53787627  .00001031  00000-0  82896-4 0  9992,2 52866  53.2199  20.7840 0002422  31.3126 328.8010 15.08839938 24939,6917.880999999999,95.438,541.4209999999998,538.07,0.0
52866.0,STARLINK-4272,PAYLOAD,2022-11-24 09:34:33,15.08835759,0.0002515,53.2199,16.919,35.4591,324.6568,5.756e-05,6.28e-06,0.0,0 STARLINK-4272,1 52866U 22062AN  22328.39900155  .00000628  00000-0  57560-4 0  9991,2 52866  53.2199  16.9190 0002515  35.4591 324.6568 15.08835759 24577,6917.893,95.438,541.498,538.019,0.0
52866.0,STARLINK-4272,PAYLOAD,2022-11-24 20:42:14,15.08846186,0.00023,53.2194,14.8355,34.5511,325.563,3.6578e-05,2.94e-06,0.0,0 STARLINK-4272,1 52866U 22062AN  22328.86267356  .00000294  00000-0  36578-4 0  9997,2 52866  53.2194  14.8355 0002300  34.5511 325.5630 15.08846186 25135,6917.861,95.437,541.318,538.135,0.0
52866.0,STARLINK-4272,PAYLOAD,2022-11-25 12:36:06,15.08840724,0.0002394,53.2199,11.8622,33.0772,327.0369,3.0744e-05,2.01e-06,0.0,0 STARLINK-4272,1 52866U 22062AN  22329.52507826  .00000201  00000-0  30744-4 0  9997,2 52866  53.2199  11.8622 0002394  33.0772 327.0369 15.08840724 25239,6917.878000000002,95.438,541.399,538.087,0.0
52866.0,STARLINK-4272,PAYLOAD,2022-11-25 23:43:48,15.08850114,0.0002565,53.2199,9.7813,34.0755,326.0402,0.0001203,1.627e-05,0.0,0 STARLINK-4272,1 52866U 22062AN  22329.98875025  .00001627  00000-0  12030-3 0  9996,2 52866  53.2199   9.7813 0002565  34.0755 326.0402 15.08850114 25308,6917.849,95.437,541.489,537.94,0.0
52866.0,STARLINK-4272,PAYLOAD,2022-11-26 09:16:07,15.08842574,0.0002442,53.2201,7.9976,32.577,327.5373,0.00014069,1.952e-05,0.0,0 STARLINK-4272,1 52866U 22062AN  22330.38619423  .00001952  00000-0  14069-3 0  9995,2 52866  53.2201   7.9976 0002442  32.5770 327.5373 15.08842574 25366,6917.873000000001,95.437,541.427,538.048,0.0
52866.0,STARLINK-4272,PAYLOAD,2022-11-27 12:17:41,15.08825975,0.0002482,53.2197,2.9428,30.2129,329.9006,-3.5684e-05,-8.56e-06,0.0,0 STARLINK-4272,1 52866U 22062AN  22331.51228567 -.00000856  00000-0 -35684-4 0  9997,2 52866  53.2197   2.9428 0002482  30.2129 329.9006 15.08825975 25538,6917.9230000000025,95.438,541.505,538.071,0.0
52866.0,STARLINK-4272,PAYLOAD,2022-11-28 04:11:32,15.088389499999998,0.0002501,53.2202,359.9693,28.7026,331.4103,2.9234e-05,1.77e-06,0.0,0 STARLINK-4272,1 52866U 22062AN  22332.17467841  .00000177  00000-0  29234-4 0  9998,2 52866  53.2202 359.9693 0002501  28.7026 331.4103 15.08838950 25638,6917.884,95.438,541.479,538.018,0.0
52866.0,STARLINK-4272,PAYLOAD,2022-11-28 08:57:41,15.08843229,0.0002519,53.2201,359.0772,28.9081,331.205,7.2055e-05,8.59e-06,0.0,0 STARLINK-4272,1 52866U 22062AN  22332.37339539  .00000859  00000-0  72055-4 0  9998,2 52866  53.2201 359.0772 0002519  28.9081 331.2050 15.08843229 25171,6917.871,95.437,541.4780000000002,537.993,0.0
52866.0,STARLINK-4272,PAYLOAD,2022-11-29 08:48:28,15.08839138,0.000253,53.2196,354.6172,29.988000000000003,330.1256,0.00011573,1.554e-05,0.0,0 STARLINK-4272,1 52866U 22062AN  22333.36699907  .00001554  00000-0  11573-3 0  9996,2 52866  53.2196 354.6172 0002530  29.9880 330.1256 15.08839138 25811,6917.8830000000025,95.438,541.498,537.998,0.0
52866.0,STARLINK-4272,PAYLOAD,2022-11-30 10:14:39,15.08839663,0.0002612,53.2187,349.8592,31.05,329.0646,6.6159e-05,7.65e-06,0.0,0 STARLINK-4272,1 52866U 22062AN  22334.42684029  .00000765  00000-0  66159-4 0  9997,2 52866  53.2187 349.8592 0002612  31.0500 329.0646 15.08839663 25483,6917.880999999999,95.438,541.553,537.939,0.0
52866.0,STARLINK-4272,PAYLOAD,2022-11-30 18:11:34,15.08847306,0.0002683,53.2194,348.3722,29.6205,330.4939,8.596399999999999e-05,1.0800000000000003e-05,0.0,0 STARLINK-4272,1 52866U 22062AN  22334.75803698  .00001080  00000-0  85964-4 0  9994,2 52866  53.2194 348.3722 0002683  29.6205 330.4939 15.08847306 26028,6917.858,95.437,541.5790000000002,537.867,0.0
52866.0,STARLINK-4272,PAYLOAD,2022-12-01 03:43:53,15.08836758,0.0002701,53.2193,346.5879,27.7529,332.3607,8.7104e-05,1.098e-05,0.0,0 STARLINK-4272,1 52866U 22062AN  22335.15548409  .00001098  00000-0  87104-4 0  9992,2 52866  53.2193 346.5879 0002701  27.7529 332.3607 15.08836758 26087,6917.89,95.438,541.624,537.887,0.0
52866.0,STARLINK-4272,PAYLOAD,2022-12-01 10:05:25,15.08843968,0.0002747,53.2193,345.3984,27.9794,332.1346,8.170000000000001e-05,1.012e-05,0.0,0 STARLINK-4272,1 52866U 22062AN  22335.42043945  .00001012  00000-0  81700-4 0  9999,2 52866  53.2193 345.3984 0002747  27.9794 332.1346 15.08843968 25636,6917.868,95.437,541.634,537.8330000000002,0.0
